[Satellite]
VERSION=1.1
NAME=SCISAT 1
NICKNAME=SCISAT 1
TLE1=1 27858U 03036A   20158.08907203  .00000027  00000-0  87806-5 0  9990
TLE2=2 27858  73.9327 207.3925 0006821  50.2755 309.9020 14.77289996905977
STATUS=0
